ONEWEB-0389             
1 50469U 21132A   25265.14404527  .00000027  00000+0  35091-4 0  9990
2 50469  87.9063  59.1816 0002019  87.6419 272.4944 13.17648456182789
ONEWEB-0390             
1 50470U 21132B   25265.14572790  .00000096  00000+0  21381-3 0  9992
2 50470  87.9062  59.1872 0001856 101.4726 258.6614 13.17650223182781
ONEWEB-0391             
1 50471U 21132C   25265.14741430  .00000081  00000+0  17588-3 0  9990
2 50471  87.9056  59.1992 0002554  90.2942 269.8483 13.17647915182781
ONEWEB-0392             
1 50472U 21132D   25265.17778248  .00000096  00000+0  21312-3 0  9997
2 50472  87.9063  59.1391 0002059  88.7569 271.3798 13.17647901182827
ONEWEB-0393             
1 50473U 21132E   25265.15091791  .00000000  00000+0 -34026-4 0  9990
2 50473  87.9064  59.1646 0001851  91.4964 268.6380 13.17646582182810
ONEWEB-0394             
1 50474U 21132F   25265.10203509 -.00000021  00000+0 -85208-4 0  9990
2 50474  87.9203  28.6714 0001810  93.5720 266.5619 13.18684119186265
ONEWEB-0395             
1 50475U 21132G   25265.21278362  .00000087  00000+0  20886-3 0  9992
2 50475  87.8784  74.4614 0001886  95.5225 264.6118 13.11420535180598
ONEWEB-0396             
1 50476U 21132H   25265.24718597  .00000084  00000+0  18020-3 0  9999
2 50476  87.9207  28.6547 0001795  95.7572 264.3765 13.18684683186327
ONEWEB-0397             
1 50477U 21132J   25265.26203826  .00000056  00000+0  10920-3 0  9996
2 50477  87.9206  28.6527 0001667  91.9868 268.1455 13.18686634186303
ONEWEB-0398             
1 50478U 21132K   25265.18056197 -.00000227  00000+0 -67554-3 0  9992
2 50478  87.8787  74.4341 0001805 104.0522 256.0806 13.11414155180486
ONEWEB-0399             
1 50479U 21132L   25265.01441997  .00000305  00000+0  82447-3 0  9994
2 50479  87.8780  74.4880 0002031  78.7015 281.4341 13.11414208180456
ONEWEB-0400             
1 50480U 21132M   25265.08883736  .00000091  00000+0  19759-3 0  9992
2 50480  87.9205  28.6771 0001796 105.5479 254.5852 13.18686318186275
ONEWEB-0401             
1 50481U 21132N   25265.28513251  .00000094  00000+0  20594-3 0  9999
2 50481  87.9207  28.6348 0001560  94.2673 265.8638 13.18687340186304
ONEWEB-0402             
1 50482U 21132P   25265.09709611 -.00000016  00000+0 -72293-4 0  9996
2 50482  87.9206  28.6653 0001173  83.5312 276.5954 13.18686479186306
ONEWEB-0403             
1 50483U 21132Q   25265.27358106  .00000048  00000+0  89233-4 0  9991
2 50483  87.9207  28.6496 0001845  97.9473 262.1869 13.18686117186288
ONEWEB-0404             
1 50484U 21132R   25264.99575900  .00000472  00000+0  12964-2 0  9999
2 50484  87.8785  74.4987 0002012  86.6140 273.5218 13.11418481180543
ONEWEB-0405             
1 50485U 21132S   25265.28843741  .00000094  00000+0  20576-3 0  9993
2 50485  87.9203  28.6318 0001588  90.0218 270.1096 13.18685891186687
ONEWEB-0406             
1 50486U 21132T   25265.27853491  .00000061  00000+0  12143-3 0  9991
2 50486  87.9207  28.6574 0002297 101.4301 258.7089 13.18685486186318
ONEWEB-0407             
1 50487U 21132U   25265.27193658  .00000015  00000+0  65143-5 0  9993
2 50487  87.9205  28.6434 0001545 100.3956 259.7351 13.18686351186259
ONEWEB-0409             
1 50488U 21132V   25264.99406275  .00000384  00000+0  10471-2 0  9994
2 50488  87.8789  74.4589 0001988  93.0824 267.0532 13.11418853180439
ONEWEB-0412             
1 50489U 21132W   25265.26038520  .00000054  00000+0  10532-3 0  9993
2 50489  87.9205  28.6582 0001460  90.4314 269.6985 13.18684809186347
ONEWEB-0413             
1 50490U 21132X   25265.26533921  .00000044  00000+0  78120-4 0  9997
2 50490  87.9208  28.6738 0001360  93.7412 266.3876 13.18685470186280
ONEWEB-0414             
1 50491U 21132Y   25265.25048640  .00000026  00000+0  32627-4 0  9998
2 50491  87.9205  28.6361 0001676  91.8391 268.2933 13.18684593186319
ONEWEB-0417             
1 50492U 21132Z   25265.10697687  .00000040  00000+0  69806-4 0  9999
2 50492  87.9207  28.6978 0001949  97.4400 262.6953 13.18684432186279
ONEWEB-0418             
1 50493U 21132AA  25265.26850432  .00000087  00000+0  18878-3 0  9999
2 50493  87.9208  28.6513 0002232  96.1238 264.0149 13.18685805186354
ONEWEB-0419             
1 50494U 21132AB  25265.28678670  .00000132  00000+0  30199-3 0  9995
2 50494  87.9203  28.6482 0002024 104.5682 255.5675 13.18685856186277
ONEWEB-0420             
1 50495U 21132AC  25265.25213296  .00000099  00000+0  21764-3 0  9992
2 50495  87.9206  28.6656 0001365 103.5057 256.6228 13.18684228186263
ONEWEB-0421             
1 50496U 21132AD  25265.24554564  .00000052  00000+0  99922-4 0  9999
2 50496  87.9207  28.6606 0001618  88.6412 271.4906 13.18685659186301
ONEWEB-0424             
1 50497U 21132AE  25265.28183166  .00000070  00000+0  14443-3 0  9994
2 50497  87.9206  28.6482 0002012 109.2215 250.9136 13.18686412186331
ONEWEB-0426             
1 50498U 21132AF  25265.09049154  .00000060  00000+0  11982-3 0  9996
2 50498  87.9206  28.6782 0002086  80.4702 279.6666 13.18684099186253
ONEWEB-0427             
1 50499U 21132AG  25265.28017765  .00000036  00000+0  57958-4 0  9998
2 50499  87.9202  28.6298 0001943  98.2752 261.8601 13.18686854186304
ONEWEB-0429             
1 50500U 21132AH  25265.26697615  .00000008  00000+0 -11435-4 0  9997
2 50500  87.9204  28.6627 0001606 101.5039 258.6273 13.18684289186272
ONEWEB-0430             
1 50501U 21132AJ  25264.87605056  .00000019  00000+0  16084-4 0  9998
2 50501  87.9206  28.7349 0001718 108.2254 251.9065 13.18684142186266
ONEWEB-0432             
1 50502U 21132AK  25265.28689305  .00000107  00000+0  23952-3 0  9993
2 50502  87.9199  28.6303 0002650 105.1063 255.0363 13.18691372186277
ONEWEB-0440             
1 50503U 21132AL  25265.27522975  .00000019  00000+0  16696-4 0  9992
2 50503  87.9209  28.6452 0001396  88.8633 271.2659 13.18685827186266
ONEWEB-0450             
1 50504U 21132AM  25265.26876751  .00000043  00000+0  76198-4 0  9996
2 50504  87.9205  28.6713 0001523 107.3329 252.7970 13.18688131186298
ONEWEB-0410             
1 51622U 22012A   25265.16260951  .00000013  00000+0  72278-6 0  9998
2 51622  87.9065  59.1480 0003034  78.7463 281.4010 13.17647784178409
ONEWEB-0411             
1 51623U 22012B   25265.07452607 -.00000531  00000+0 -15586-2 0  9992
2 51623  87.8736  89.7309 0001652 108.6045 251.5262 13.10370578174170
ONEWEB-0415             
1 51624U 22012C   25265.07120560 -.00000398  00000+0 -11763-2 0  9997
2 51624  87.8733  89.7339 0001666  98.9679 261.1638 13.10369270174171
ONEWEB-0416             
1 51625U 22012D   25265.23553540 -.00000568  00000+0 -16634-2 0  9995
2 51625  87.8738  89.7212 0001694  89.4651 270.6671 13.10372557174234
ONEWEB-0422             
1 51626U 22012E   25265.17272546  .00000046  00000+0  84171-4 0  9995
2 51626  87.9062  59.1514 0000957  92.5286 267.5955 13.17648041178518
ONEWEB-0423             
1 51627U 22012F   25265.16597250  .00000081  00000+0  17520-3 0  9999
2 51627  87.9064  59.1618 0001627  90.8492 269.2826 13.17646889178403
ONEWEB-0425             
1 51628U 22012G   25265.24550368 -.00000442  00000+0 -13015-2 0  9995
2 51628  87.8741  89.6885 0001898  79.7528 280.3813 13.10374304174235
ONEWEB-0428             
1 51629U 22012H   25265.07286374 -.00000414  00000+0 -12213-2 0  9998
2 51629  87.8734  89.7443 0001452  90.1764 269.9530 13.10369983174173
ONEWEB-0431             
1 51630U 22012J   25265.27194443  .00000676  00000+0  19001-2 0  9997
2 51630  87.8744  89.6772 0001530 111.5869 248.5421 13.10375943174255
ONEWEB-0434             
1 51631U 22012K   25265.01975709 -.00000197  00000+0 -60132-3 0  9994
2 51631  87.8743  89.7692 0002092  73.5055 286.6302 13.10375492174200
ONEWEB-0435             
1 51632U 22012L   25265.25713341  .00000238  00000+0  64510-3 0  9991
2 51632  87.8742  89.7132 0001224  84.8180 275.3087 13.10375607174224
ONEWEB-0436             
1 51633U 22012M   25265.15753634  .00000001  00000+0 -30913-4 0  9990
2 51633  87.9056  59.1433 0001508  98.0077 262.1226 13.17647146178383
ONEWEB-0438             
1 51634U 22012N   25265.24051848 -.00000493  00000+0 -14488-2 0  9992
2 51634  87.8738  89.7175 0001775  83.5358 276.5971 13.10373903174257
ONEWEB-0439             
1 51635U 22012P   25265.01476831 -.00000454  00000+0 -13366-2 0  9992
2 51635  87.8743  89.7511 0001608  85.4238 274.7073 13.10374482174202
ONEWEB-0442             
1 51636U 22012Q   25265.14995145  .00000061  00000+0  12409-3 0  9991
2 51636  87.9052  59.1988 0002318  88.9026 271.2372 13.17649746178379
ONEWEB-0443             
1 51637U 22012R   25265.16935958  .00000306  00000+0  75555-3 0  9993
2 51637  87.9050  59.2019 0001459  82.7098 277.4199 13.17647168178427
ONEWEB-0444             
1 51638U 22012S   25265.23387765 -.00000546  00000+0 -16017-2 0  9994
2 51638  87.8734  89.7071 0001501  84.1270 276.0029 13.10372627174249
ONEWEB-0445             
1 51639U 22012T   25265.25547283  .00000135  00000+0  35153-3 0  9995
2 51639  87.8757  89.6572 0001782  90.8982 269.2350 13.10377044174255
ONEWEB-0446             
1 51640U 22012U   25265.07950332 -.00000609  00000+0 -17805-2 0  9991
2 51640  87.8737  89.7537 0001757  94.6792 265.4536 13.10371666174214
ONEWEB-0448             
1 51641U 22012V   25265.23719335 -.00000577  00000+0 -16889-2 0  9991
2 51641  87.8736  89.7217 0001564  86.3160 273.8146 13.10372793174203
ONEWEB-0449             
1 51642U 22012W   25265.01311035 -.00000494  00000+0 -14528-2 0  9999
2 51642  87.8738  89.7372 0001983  76.7565 283.3783 13.10374735174183
ONEWEB-0451             
1 51643U 22012X   25265.15415909  .00000061  00000+0  12416-3 0  9993
2 51643  87.9064  59.1375 0001809  89.3993 270.7346 13.17649764178366
ONEWEB-0452             
1 51644U 22012Y   25265.15247660  .00000063  00000+0  12903-3 0  9994
2 51644  87.9056  59.1994 0001735  84.2526 275.8804 13.17648066178379
